OBJECT_NAME,OBJECT_ID,EPOCH,MEAN_MOTION,ECCENTRICITY,INCLINATION,RA_OF_ASC_NODE,ARG_OF_PERICENTER,MEAN_ANOMALY,EPHEMERIS_TYPE,CLASSIFICATION_TYPE,NORAD_CAT_ID,ELEMENT_SET_NO,REV_AT_EPOCH,BSTAR,MEAN_MOTION_DOT,MEAN_MOTION_DDOT
GONETS-M 19,2020-068C,2026-06-10T07:21:02.623104,12.42891766,.00144287,82.4974,351.3540,63.4839,296.7718,0,U,46488,999,25839,-.11439558E-3,-.6E-7,0
DEKART,2020-068H,2026-06-10T05:48:26.245152,15.37192785,.00073616,97.8744,170.0152,317.3443,42.7227,0,U,46493,999,31470,.32914435E-3,.11912E-3,0
NORBI,2020-068J,2026-06-10T07:21:17.337888,15.48164655,.00044991,97.8632,176.6660,280.0434,80.0307,0,U,46494,999,31514,.3752924E-3,.19652E-3,0
SALSAT,2020-068K,2026-06-10T06:39:18.129024,15.29700288,.00086487,97.8853,163.9217,336.5873,23.4971,0,U,46495,999,31430,.26694921E-3,.7605E-4,0
ICEYE-X6,2020-068M,2026-06-10T06:35:15.205056,15.04479480,.00084839,98.0960,154.6156,109.9884,250.2255,0,U,46497,999,31219,.21070733E-3,.2883E-4,0
NETSAT-4,2020-068U,2026-06-09T23:52:22.121472,15.43626968,.00047779,97.8609,168.6585,8.4762,351.6565,0,U,46504,999,31466,.38129176E-3,.17087E-3,0
NETSAT-3,2020-068V,2026-06-10T06:07:05.381760,15.42438382,.00051999,97.8658,167.1648,26.3692,333.7817,0,U,46505,999,31461,.40267076E-3,.17346E-3,0
NETSAT-1,2020-068W,2026-06-09T23:06:14.629248,15.34472881,.00058708,97.8747,161.2655,52.9556,307.2221,0,U,46506,999,31419,.38055042E-3,.12632E-3,0
NETSAT-2,2020-068X,2026-06-09T23:30:53.836992,15.45689051,.00044467,97.8624,168.5112,45.3806,314.7803,0,U,46507,999,31462,.48022016E-3,.23125E-3,0
TIANQI-6,2020-076D,2026-06-10T04:23:02.689728,15.07136073,.00092238,34.9986,91.4506,109.6942,250.4763,0,U,46810,999,30752,.22862148E-3,.3482E-4,0
KSM1-C,2020-081B,2026-06-10T07:01:35.329728,15.26623766,.00019919,36.8944,101.5020,210.7189,149.3444,0,U,46906,999,30811,.33432074E-3,.8879E-4,0
KSM1-D,2020-081C,2026-06-10T06:50:54.317760,15.24621608,.0004535,36.8946,110.4241,220.1513,139.8901,0,U,46907,999,30804,.31636691E-3,.7901E-4,0
KSM1-A,2020-081H,2026-06-10T07:01:08.544000,15.25850116,.00047369,36.8953,103.8463,263.4789,96.5420,0,U,46912,999,30812,.35123832E-3,.9118E-4,0
R2,2020-081J,2026-06-09T03:11:45.827520,15.25316026,.00084913,36.8973,110.9294,224.5897,135.4169,0,U,46913,999,31075,.25956339E-3,.6606E-4,0
KSM1-B,2020-081K,2026-06-10T06:54:30.169152,15.24413612,.00067181,36.9005,110.9974,231.6690,128.3455,0,U,46914,999,31113,.30453284E-3,.7556E-4,0
GONETS-M 20,2020-091A,2026-06-10T05:51:48.262176,12.42893552,.00208771,82.5042,306.7528,193.0552,166.9990,0,U,47227,999,25021,.14110365E-3,.29E-6,0
GONETS-M 21,2020-091B,2026-06-10T05:14:07.066176,12.42886754,.00144322,82.4966,305.4803,206.3194,153.7154,0,U,47228,999,25020,.45923379E-3,.73E-6,0
GONETS-M 22,2020-091C,2026-06-10T06:31:20.198784,12.42892890,.00218091,82.5024,306.3424,188.3506,171.7214,0,U,47229,999,25016,.52269596E-3,.82E-6,0
CUBEL,2021-006AM,2026-06-08T15:44:19.785984,15.40916074,.00063181,97.2333,210.3218,187.3006,172.8150,0,U,47448,999,29844,.23397477E-3,.9545E-4,0
ARKTIKA-M 1,2021-016A,2026-06-09T12:22:37.726752,2.00625436,.7285674,63.2417,58.7595,269.8905,14.6803,0,U,47719,999,3863,0,-.149E-5,0
STARLINK-2342,2021-021Z,2026-06-10T08:00:01.999872,15.79105212,.00016889,53.1549,182.3905,71.1629,223.9445,0,U,47883,999,594,.66903954E-3,.122878E-2,0
GRUS-1B,2021-022C,2026-06-10T07:13:36.742944,14.98982871,.00163227,97.5411,44.7253,353.3519,6.7485,0,U,47934,999,28486,.13976866E-3,.1639E-4,0
UNISAT-7,2021-022P,2026-06-10T01:53:15.001440,15.40276272,.00111928,97.3898,65.9294,98.8621,261.3893,0,U,47945,999,28876,.35608832E-3,.14291E-3,0
GLOBAL-9,2021-023G,2026-06-09T19:48:06.962112,15.46323503,.0005147,44.9819,291.8994,280.6930,79.3380,0,U,47971,999,29380,.43604E-3,.21702E-3,0
AII-BRAVO,2021-034C,2026-06-10T02:23:23.418240,15.03424233,.00047296,97.5624,216.1704,291.6651,68.4071,0,U,48270,999,27855,.32691848E-3,.439E-4,0
TYVAK-182A,2021-034D,2026-06-09T21:20:38.569920,15.06105050,.00057928,97.5734,219.9336,14.3282,345.8108,0,U,48271,999,27873,.31320151E-3,.4518E-4,0
CSS (TIANHE),2021-035A,2026-06-10T06:11:20.390496,15.60521167,.0008406,41.4694,4.1634,21.6299,338.4893,0,U,48274,999,29208,.26248404E-3,.22027E-3,0
TYVAK-0130,2021-041BF,2026-06-09T23:29:47.719392,15.27472919,.00108565,52.9976,59.5580,140.9745,219.2038,0,U,48606,999,27928,.2718079E-3,.7069E-4,0
