GONETS-M 19             
1 46488U 20068C   26161.30628036 -.00000006  00000+0 -11440-3 0  9990
2 46488  82.4974 351.3540 0014428  63.4839 296.7718 12.42891766258392
DEKART                  
1 46493U 20068H   26161.24197043  .00011912  00000+0  32914-3 0  9993
2 46493  97.8744 170.0152 0007361 317.3443  42.7227 15.37192785314702
NORBI                   
1 46494U 20068J   26161.30645067  .00019652  00000+0  37529-3 0  9991
2 46494  97.8632 176.6660 0004499 280.0434  80.0307 15.48164655315140
SALSAT                  
1 46495U 20068K   26161.27729316  .00007605  00000+0  26695-3 0  9995
2 46495  97.8853 163.9217 0008648 336.5873  23.4971 15.29700288314309
ICEYE-X6                
1 46497U 20068M   26161.27448154  .00002883  00000+0  21071-3 0  9991
2 46497  98.0960 154.6156 0008483 109.9884 250.2255 15.04479480312193
NETSAT-4                
1 46504U 20068U   26160.99470048  .00017087  00000+0  38129-3 0  9999
2 46504  97.8609 168.6585 0004777   8.4762 351.6565 15.43626968314662
NETSAT-3                
1 46505U 20068V   26161.25492340  .00017346  00000+0  40267-3 0  9993
2 46505  97.8658 167.1648 0005199  26.3692 333.7817 15.42438382314617
NETSAT-1                
1 46506U 20068W   26160.96266932  .00012632  00000+0  38055-3 0  9992
2 46506  97.8747 161.2655 0005870  52.9556 307.2221 15.34472881314191
NETSAT-2                
1 46507U 20068X   26160.97978978  .00023125  00000+0  48022-3 0  9998
2 46507  97.8624 168.5112 0004446  45.3806 314.7803 15.45689051314624
TIANQI-6                
1 46810U 20076D   26161.18267002  .00003482  00000+0  22862-3 0  9995
2 46810  34.9986  91.4506 0009223 109.6942 250.4763 15.07136073307529
KSM1-C                  
1 46906U 20081B   26161.29277002  .00008879  00000+0  33432-3 0  9990
2 46906  36.8944 101.5020 0001991 210.7189 149.3444 15.26623766308114
KSM1-D                  
1 46907U 20081C   26161.28535090  .00007901  00000+0  31637-3 0  9994
2 46907  36.8946 110.4241 0004535 220.1513 139.8901 15.24621608308049
KSM1-A                  
1 46912U 20081H   26161.29246000  .00009118  00000+0  35124-3 0  9998
2 46912  36.8953 103.8463 0004736 263.4789  96.5420 15.25850116308126
R2                      
1 46913U 20081J   26160.13316930  .00006606  00000+0  25956-3 0  9992
2 46913  36.8973 110.9294 0008491 224.5897 135.4169 15.25316026310752
KSM1-B                  
1 46914U 20081K   26161.28784918  .00007556  00000+0  30453-3 0  9998
2 46914  36.9005 110.9974 0006718 231.6690 128.3455 15.24413612311135
GONETS-M 20             
1 47227U 20091A   26161.24430859  .00000029  00000+0  14110-3 0  9995
2 47227  82.5042 306.7528 0020877 193.0552 166.9990 12.42893552250216
GONETS-M 21             
1 47228U 20091B   26161.21813734  .00000073  00000+0  45923-3 0  9995
2 47228  82.4966 305.4803 0014432 206.3194 153.7154 12.42886754250204
GONETS-M 22             
1 47229U 20091C   26161.27176156  .00000082  00000+0  52270-3 0  9995
2 47229  82.5024 306.3424 0021809 188.3506 171.7214 12.42892890250162
CUBEL                   
1 47448U 21006AM  26159.65578456  .00009545  00000+0  23397-3 0  9994
2 47448  97.2333 210.3218 0006318 187.3006 172.8150 15.40916074298444
ARKTIKA-M 1             
1 47719U 21016A   26160.51571443 -.00000149  00000+0  00000+0 0  9996
2 47719  63.2417  58.7595 7285674 269.8905  14.6803  2.00625436 38630
STARLINK-2342           
1 47883U 21021Z   26161.33335648  .00122878  00000+0  66904-3 0  9992
2 47883  53.1549 182.3905 0001688  71.1629 223.9445 15.79105212  5946
GRUS-1B                 
1 47934U 21022C   26161.30111971  .00001639  00000+0  13977-3 0  9991
2 47934  97.5411  44.7253 0016322 353.3519   6.7485 14.98982871284869
UNISAT-7                
1 47945U 21022P   26161.07864585  .00014291  00000+0  35609-3 0  9997
2 47945  97.3898  65.9294 0011192  98.8621 261.3893 15.40276272288767
GLOBAL-9                
1 47971U 21023G   26160.82508058  .00021702  00000+0  43604-3 0  9998
2 47971  44.9819 291.8994 0005147 280.6930  79.3380 15.46323503293806
AII-BRAVO               
1 48270U 21034C   26161.09957660  .00004390  00000+0  32692-3 0  9999
2 48270  97.5624 216.1704 0004729 291.6651  68.4071 15.03424233278559
TYVAK-182A              
1 48271U 21034D   26160.88933530  .00004518  00000+0  31320-3 0  9995
2 48271  97.5734 219.9336 0005792  14.3282 345.8108 15.06105050278734
CSS (TIANHE)            
1 48274U 21035A   26161.25787489  .00022027  00000+0  26248-3 0  9999
2 48274  41.4694   4.1634 0008406  21.6299 338.4893 15.60521167292083
TYVAK-0130              
1 48606U 21041BF  26160.97902453  .00007069  00000+0  27181-3 0  9999
2 48606  52.9976  59.5580 0010856 140.9745 219.2038 15.27472919279286
